{"epoch":1784762836,"count":18316,"objects":[{"id":"28899","name":"INMARSAT 4-F2","type":"PAYLOAD","l1":"1 28899U 05044A   26203.42883860 -.00000261  00000-0  00000-0 0  9991","l2":"2 28899   5.1407  43.6883 0002984  61.6125 132.7507  1.00271931 75877"},{"id":"37605","name":"GSAT 8","type":"PAYLOAD","l1":"1 37605U 11022A   26203.48268089  .00000086  00000-0  00000-0 0  9999","l2":"2 37605   2.2198  81.3953 0002512 150.4222 297.2494  1.00272059 53573"},{"id":"37951","name":"LUCH 5A","type":"PAYLOAD","l1":"1 37951U 11074B   26203.44787147 -.00000052  00000-0  00000+0 0  9990","l2":"2 37951   8.8408  73.2870 0002888  61.8063 133.3744  1.00274767 53403"},{"id":"38652","name":"SES 5","type":"PAYLOAD","l1":"1 38652U 12036A   26203.33011471  .00000037  00000-0  00000-0 0  9999","l2":"2 38652   0.0446 320.3526 0002058 156.7771 306.7623  1.00271613 44804"},{"id":"38779","name":"GSAT 10","type":"PAYLOAD","l1":"1 38779U 12051B   26203.41695645 -.00000162  00000-0  00000-0 0  9996","l2":"2 38779   0.0731 263.1821 0007647 193.0679  77.0302  1.00272627 50459"},{"id":"38977","name":"LUCH 5B","type":"PAYLOAD","l1":"1 38977U 12061A   26203.32595469 -.00000142  00000-0  00000-0 0  9998","l2":"2 38977  10.5579  49.5290 0003816 142.6443 208.9363  1.00270748 49951"},{"id":"39617","name":"ASTRA 5B","type":"PAYLOAD","l1":"1 39617U 14011B   26203.33384140  .00000140  00000-0  00000-0 0  9997","l2":"2 39617   0.0627 311.9113 0002202 176.3679 315.4243  1.00272228 45024"},{"id":"39727","name":"LUCH 5V","type":"PAYLOAD","l1":"1 39727U 14023A   26203.63301753 -.00000269  00000-0  00000-0 0  9997","l2":"2 39727   5.2185  69.3754 0002321  78.5308 115.1011  1.00271699 44715"},{"id":"41028","name":"GSAT 15","type":"PAYLOAD","l1":"1 41028U 15065A   26203.49027009 -.00000254  00000-0  00000-0 0  9998","l2":"2 41028   0.0994 263.2486 0003606 179.4604 127.5282  1.00271481 39155"},{"id":"41589","name":"EUTE 117W B","type":"PAYLOAD","l1":"1 41589U 16038B   26203.48655935 -.00000009  00000-0  00000-0 0  9993","l2":"2 41589   0.0061 166.5957 0000269 341.2172 210.5892  1.00275290 37016"},{"id":"42709","name":"SES 15","type":"PAYLOAD","l1":"1 42709U 17026A   26203.50461384  .00000064  00000-0  00000-0 0  9992","l2":"2 42709   0.0287 320.6475 0000581 129.2600 262.8394  1.00268122  7780"},{"id":"42738","name":"QZS-2","type":"PAYLOAD","l1":"1 42738U 17028A   26203.44061192 -.00000120  00000-0  00000-0 0  9996","l2":"2 42738  39.3767 242.6339 0756705 269.6876  88.9804  1.00274888  7983"},{"id":"42917","name":"QZS-3","type":"PAYLOAD","l1":"1 42917U 17048A   26203.52822449 -.00000344  00000-0  00000-0 0  9994","l2":"2 42917   0.0590 203.2900 0002850 283.6707 130.4854  1.00269245 32619"}]}